{"type": "FeatureCollection", "features": [ {"type": "Feature", "properties": {"norad_id": 66623, "name": "STARLINK-35920", "group": "last-30-days", "lat": 39.250817136214955, "lon": -110.04979303303327, "alt_km": 346.42600002519066, "timestamp": "2025-12-07T14:37:03.995096+00:00", "meta": {"OBJECT_NAME": "STARLINK-35920", "OBJECT_ID": "2025-271G", "EPOCH": "2025-12-06T22:00:01.999584", "MEAN_MOTION": 15.74671208, "ECCENTRICITY": 0.00010981, "INCLINATION": 53.1578, "RA_OF_ASC_NODE": 215.6044, "ARG_OF_PERICENTER": 115.8393, "MEAN_ANOMALY": 332.0456, "EPHEMERIS_TYPE": 0, "CLASSIFICATION_TYPE": "U", "NORAD_CAT_ID": 66623, "ELEMENT_SET_NO": 999, "REV_AT_EPOCH": 330, "BSTAR": -0.011324732, "MEAN_MOTION_DOT": -0.01490689, "MEAN_MOTION_DDOT": 0}, "tle": {"line1": "1 66623U 25271G   25340.91668981 -.01490689  00000+0 -11325-1 0  9993", "line2": "2 66623  53.1578 215.6044 0001098 115.8393 332.0456 15.74671208  3304"}}, "geometry": {"type": "Point", "coordinates": [-110.04979303303327, 39.250817136214955]}}, {"type": "Feature", "properties": {"norad_id": 66624, "name": "STARLINK-35927", "group": "last-30-days", "lat": 38.042314318053585, "lon": -111.90276621652858, "alt_km": 346.38532027776, "timestamp": "2025-12-07T14:37:03.995108+00:00", "meta": {"OBJECT_NAME": "STARLINK-35927", "OBJECT_ID": "2025-271H", "EPOCH": "2025-12-06T22:00:01.999584", "MEAN_MOTION": 15.74645285, "ECCENTRICITY": 7.857e-05, "INCLINATION": 53.1581, "RA_OF_ASC_NODE": 215.6086, "ARG_OF_PERICENTER": 63.4032, "MEAN_ANOMALY": 22.5681, "EPHEMERIS_TYPE": 0, "CLASSIFICATION_TYPE": "U", "NORAD_CAT_ID": 66624, "ELEMENT_SET_NO": 999, "REV_AT_EPOCH": 330, "BSTAR": -0.010991253, "MEAN_MOTION_DOT": -0.01450346, "MEAN_MOTION_DDOT": 0}, "tle": {"line1": "1 66624U 25271H   25340.91668981 -.01450346  00000+0 -10991-1 0  9998", "line2": "2 66624  53.1581 215.6086 0000785  63.4032  22.5681 15.74645285  3302"}}, "geometry": {"type": "Point", "coordinates": [-111.90276621652858, 38.042314318053585]}}, {"type": "Feature", "properties": {"norad_id": 66625, "name": "STARLINK-35929", "group": "last-30-days", "lat": 40.465944031903454, "lon": -108.07079640553341, "alt_km": 345.8361550239488, "timestamp": "2025-12-07T14:37:03.995120+00:00", "meta": {"OBJECT_NAME": "STARLINK-35929", "OBJECT_ID": "2025-271J", "EPOCH": "2025-12-06T22:00:01.999584", "MEAN_MOTION": 15.74623107, "ECCENTRICITY": 0.00012423, "INCLINATION": 53.1581, "RA_OF_ASC_NODE": 215.6004, "ARG_OF_PERICENTER": 84.7473, "MEAN_ANOMALY": 5.093, "EPHEMERIS_TYPE": 0, "CLASSIFICATION_TYPE": "U", "NORAD_CAT_ID": 66625, "ELEMENT_SET_NO": 999, "REV_AT_EPOCH": 330, "BSTAR": -0.010907561, "MEAN_MOTION_DOT": -0.01439623, "MEAN_MOTION_DDOT": 0}, "tle": {"line1": "1 66625U 25271J   25340.91668981 -.01439623  00000+0 -10908-1 0  9992", "line2": "2 66625  53.1581 215.6004 0001242  84.7473   5.0930 15.74623107  3309"}}, "geometry": {"type": "Point", "coordinates": [-108.07079640553341, 40.465944031903454]}}, {"type": "Feature", "properties": {"norad_id": 66626, "name": "STARLINK-35902", "group": "last-30-days", "lat": 41.63365790161567, "lon": -106.04139872587588, "alt_km": 345.82051683867303, "timestamp": "2025-12-07T14:37:03.995130+00:00", "meta": {"OBJECT_NAME": "STARLINK-35902", "OBJECT_ID": "2025-271K", "EPOCH": "2025-12-06T22:00:01.999584", "MEAN_MOTION": 15.74546719, "ECCENTRICITY": 9.369e-05, "INCLINATION": 53.1578, "RA_OF_ASC_NODE": 215.5958, "ARG_OF_PERICENTER": 96.8292, "MEAN_ANOMALY": 355.0003, "EPHEMERIS_TYPE": 0, "CLASSIFICATION_TYPE": "U", "NORAD_CAT_ID": 66626, "ELEMENT_SET_NO": 999, "REV_AT_EPOCH": 330, "BSTAR": -0.010425565, "MEAN_MOTION_DOT": -0.01378846, "MEAN_MOTION_DDOT": 0}, "tle": {"line1": "1 66626U 25271K   25340.91668981 -.01378846  00000+0 -10426-1 0  9997", "line2": "2 66626  53.1578 215.5958 0000936  96.8292 355.0003 15.74546719  3307"}}, "geometry": {"type": "Point", "coordinates": [-106.04139872587588, 41.63365790161567]}}, {"type": "Feature", "properties": {"norad_id": 66627, "name": "STARLINK-35904", "group": "last-30-days", "lat": 42.726497173983574, "lon": -104.01065764603607, "alt_km": 345.90094291868536, "timestamp": "2025-12-07T14:37:03.995140+00:00", "meta": {"OBJECT_NAME": "STARLINK-35904", "OBJECT_ID": "2025-271L", "EPOCH": "2025-12-06T22:00:01.999584", "MEAN_MOTION": 15.74570013, "ECCENTRICITY": 7.752e-05, "INCLINATION": 53.1576, "RA_OF_ASC_NODE": 215.5915, "ARG_OF_PERICENTER": 68.4935, "MEAN_ANOMALY": 25.2927, "EPHEMERIS_TYPE": 0, "CLASSIFICATION_TYPE": "U", "NORAD_CAT_ID": 66627, "ELEMENT_SET_NO": 999, "REV_AT_EPOCH": 314, "BSTAR": -0.0110799, "MEAN_MOTION_DOT": -0.01456402, "MEAN_MOTION_DDOT": 0}, "tle": {"line1": "1 66627U 25271L   25340.91668981 -.01456402  00000+0 -11080-1 0  9990", "line2": "2 66627  53.1576 215.5915 0000775  68.4935  25.2927 15.74570013  3146"}}, "geometry": {"type": "Point", "coordinates": [-104.01065764603607, 42.726497173983574]}}, {"type": "Feature", "properties": {"norad_id": 66628, "name": "STARLINK-35862", "group": "last-30-days", "lat": 43.84757216030557, "lon": -101.77278349025465, "alt_km": 345.35738067605234, "timestamp": "2025-12-07T14:37:03.995150+00:00", "meta": {"OBJECT_NAME": "STARLINK-35862", "OBJECT_ID": "2025-271M", "EPOCH": "2025-12-06T22:00:01.999584", "MEAN_MOTION": 15.74585876, "ECCENTRICITY": 8.866e-05, "INCLINATION": 53.1576, "RA_OF_ASC_NODE": 215.5877, "ARG_OF_PERICENTER": 60.8296, "MEAN_ANOMALY": 34.7864, "EPHEMERIS_TYPE": 0, "CLASSIFICATION_TYPE": "U", "NORAD_CAT_ID": 66628, "ELEMENT_SET_NO": 999, "REV_AT_EPOCH": 330, "BSTAR": -0.01063443, "MEAN_MOTION_DOT": -0.01405449, "MEAN_MOTION_DDOT": 0}, "tle": {"line1": "1 66628U 25271M   25340.91668981 -.01405449  00000+0 -10634-1 0  9990", "line2": "2 66628  53.1576 215.5877 0000886  60.8296  34.7864 15.74585876  3309"}}, "geometry": {"type": "Point", "coordinates": [-101.77278349025465, 43.84757216030557]}}, {"type": "Feature", "properties": {"norad_id": 66629, "name": "STARLINK-35956", "group": "last-30-days", "lat": 44.89734799929553, "lon": -99.50822093860043, "alt_km": 345.0660038101387, "timestamp": "2025-12-07T14:37:03.995162+00:00", "meta": {"OBJECT_NAME": "STARLINK-35956", "OBJECT_ID": "2025-271N", "EPOCH": "2025-12-06T22:00:01.999584", "MEAN_MOTION": 15.74570635, "ECCENTRICITY": 0.00011073, "INCLINATION": 53.1576, "RA_OF_ASC_NODE": 215.5843, "ARG_OF_PERICENTER": 85.2321, "MEAN_ANOMALY": 12.3054, "EPHEMERIS_TYPE": 0, "CLASSIFICATION_TYPE": "U", "NORAD_CAT_ID": 66629, "ELEMENT_SET_NO": 999, "REV_AT_EPOCH": 330, "BSTAR": -0.010432526, "MEAN_MOTION_DOT": -0.01381042, "MEAN_MOTION_DDOT": 0}, "tle": {"line1": "1 66629U 25271N   25340.91668981 -.01381042  00000+0 -10433-1 0  9990", "line2": "2 66629  53.1576 215.5843 0001107  85.2321  12.3054 15.74570635  3300"}}, "geometry": {"type": "Point", "coordinates": [-99.50822093860043, 44.89734799929553]}}, {"type": "Feature", "properties": {"norad_id": 66630, "name": "STARLINK-35949", "group": "last-30-days", "lat": 45.892121633145194, "lon": -97.18356218151621, "alt_km": 344.93686746591356, "timestamp": "2025-12-07T14:37:03.995174+00:00", "meta": {"OBJECT_NAME": "STARLINK-35949", "OBJECT_ID": "2025-271P", "EPOCH": "2025-12-06T22:00:01.999584", "MEAN_MOTION": 15.74573771, "ECCENTRICITY": 0.00010845, "INCLINATION": 53.1578, "RA_OF_ASC_NODE": 215.5797, "ARG_OF_PERICENTER": 82.3611, "MEAN_ANOMALY": 17.0947, "EPHEMERIS_TYPE": 0, "CLASSIFICATION_TYPE": "U", "NORAD_CAT_ID": 66630, "ELEMENT_SET_NO": 999, "REV_AT_EPOCH": 330, "BSTAR": -0.010496284, "MEAN_MOTION_DOT": -0.01388693, "MEAN_MOTION_DDOT": 0}, "tle": {"line1": "1 66630U 25271P   25340.91668981 -.01388693  00000+0 -10496-1 0  9990", "line2": "2 66630  53.1578 215.5797 0001084  82.3611  17.0947 15.74573771  3303"}}, "geometry": {"type": "Point", "coordinates": [-97.18356218151621, 45.892121633145194]}}, {"type": "Feature", "properties": {"norad_id": 66631, "name": "STARLINK-35965", "group": "last-30-days", "lat": 46.837975025324035, "lon": -94.77432631504128, "alt_km": 344.71190341845613, "timestamp": "2025-12-07T14:37:03.995186+00:00", "meta": {"OBJECT_NAME": "STARLINK-35965", "OBJECT_ID": "2025-271Q", "EPOCH": "2025-12-06T22:00:01.999584", "MEAN_MOTION": 15.74591372, "ECCENTRICITY": 0.00011853, "INCLINATION": 53.1578, "RA_OF_ASC_NODE": 215.5761, "ARG_OF_PERICENTER": 61.9451, "MEAN_ANOMALY": 39.4151, "EPHEMERIS_TYPE": 0, "CLASSIFICATION_TYPE": "U", "NORAD_CAT_ID": 66631, "ELEMENT_SET_NO": 999, "REV_AT_EPOCH": 330, "BSTAR": -0.010653469, "MEAN_MOTION_DOT": -0.01408146, "MEAN_MOTION_DDOT": 0}, "tle": {"line1": "1 66631U 25271Q   25340.91668981 -.01408146  00000+0 -10653-1 0  9992", "line2": "2 66631  53.1578 215.5761 0001185  61.9451  39.4151 15.74591372  3304"}}, "geometry": {"type": "Point", "coordinates": [-94.77432631504128, 46.837975025324035]}}, {"type": "Feature", "properties": {"norad_id": 66632, "name": "STARLINK-35973", "group": "last-30-days", "lat": 47.736090253539444, "lon": -92.26728615067606, "alt_km": 344.7441432618398, "timestamp": "2025-12-07T14:37:03.995196+00:00", "meta": {"OBJECT_NAME": "STARLINK-35973", "OBJECT_ID": "2025-271R", "EPOCH": "2025-12-06T22:00:01.999584", "MEAN_MOTION": 15.74586045, "ECCENTRICITY": 8.902e-05, "INCLINATION": 53.1576, "RA_OF_ASC_NODE": 215.5718, "ARG_OF_PERICENTER": 65.5441, "MEAN_ANOMALY": 37.7306, "EPHEMERIS_TYPE": 0, "CLASSIFICATION_TYPE": "U", "NORAD_CAT_ID": 66632, "ELEMENT_SET_NO": 999, "REV_AT_EPOCH": 324, "BSTAR": -0.010573184, "MEAN_MOTION_DOT": -0.01398281, "MEAN_MOTION_DDOT": 0}, "tle": {"line1": "1 66632U 25271R   25340.91668981 -.01398281  00000+0 -10573-1 0  9992", "line2": "2 66632  53.1576 215.5718 0000890  65.5441  37.7306 15.74586045  3243"}}, "geometry": {"type": "Point", "coordinates": [-92.26728615067606, 47.736090253539444]}}]}